[{"OBJECT_NAME":"KINEIS-3B","OBJECT_ID":"2024-172E","EPOCH":"2026-03-09T17:21:30.663648","MEAN_MOTION":14.72290819,"ECCENTRICITY":0.00034024,"INCLINATION":98.028,"RA_OF_ASC_NODE":159.8522,"ARG_OF_PERICENTER":61.18,"MEAN_ANOMALY":298.9749,"EPHEMERIS_TYPE":0,"CLASSIFICATION_TYPE":"U","NORAD_CAT_ID":61224,"ELEMENT_SET_NO":999,"REV_AT_EPOCH":7871,"BSTAR":0.00046023739,"MEAN_MOTION_DOT":2.859e-5,"MEAN_MOTION_DDOT":0},{"OBJECT_NAME":"CZ-6A DEB","OBJECT_ID":"2022-151MA","EPOCH":"2026-03-09T23:11:12.755904","MEAN_MOTION":14.51879064,"ECCENTRICITY":0.01015131,"INCLINATION":98.5694,"RA_OF_ASC_NODE":112.4954,"ARG_OF_PERICENTER":244.8229,"MEAN_ANOMALY":114.2411,"EPHEMERIS_TYPE":0,"CLASSIFICATION_TYPE":"U","NORAD_CAT_ID":54574,"ELEMENT_SET_NO":999,"REV_AT_EPOCH":17460,"BSTAR":0.00074028256,"MEAN_MOTION_DOT":3.138e-5,"MEAN_MOTION_DDOT":0}]
